[{"OBJECT_NAME":"FENGYUN 1C DEB","OBJECT_ID":"1999-025DJL","EPOCH":"2026-03-31T17:38:38.880672","MEAN_MOTION":14.18484168,"ECCENTRICITY":0.00866398,"INCLINATION":99.0906,"RA_OF_ASC_NODE":193.0359,"ARG_OF_PERICENTER":266.8352,"MEAN_ANOMALY":92.2907,"EPHEMERIS_TYPE":0,"CLASSIFICATION_TYPE":"U","NORAD_CAT_ID":33747,"ELEMENT_SET_NO":999,"REV_AT_EPOCH":91677,"BSTAR":0.0021859647,"MEAN_MOTION_DOT":4.644e-5,"MEAN_MOTION_DDOT":0},{"OBJECT_NAME":"FENGYUN 1C DEB","OBJECT_ID":"1999-025DJM","EPOCH":"2026-04-04T20:39:51.737472","MEAN_MOTION":14.32851351,"ECCENTRICITY":0.0033891,"INCLINATION":98.571,"RA_OF_ASC_NODE":149.8624,"ARG_OF_PERICENTER":264.8625,"MEAN_ANOMALY":94.8691,"EPHEMERIS_TYPE":0,"CLASSIFICATION_TYPE":"U","NORAD_CAT_ID":33748,"ELEMENT_SET_NO":999,"REV_AT_EPOCH":93013,"BSTAR":0.00071240098,"MEAN_MOTION_DOT":1.913e-5,"MEAN_MOTION_DDOT":0},{"OBJECT_NAME":"FENGYUN 1C DEB","OBJECT_ID":"1999-025DJQ","EPOCH":"2026-03-29T02:17:56.966208","MEAN_MOTION":14.14807221,"ECCENTRICITY":0.0259337,"INCLINATION":94.6192,"RA_OF_ASC_NODE":217.4941,"ARG_OF_PERICENTER":230.3708,"MEAN_ANOMALY":127.4331,"EPHEMERIS_TYPE":0,"CLASSIFICATION_TYPE":"U","NORAD_CAT_ID":35088,"ELEMENT_SET_NO":999,"REV_AT_EPOCH":60302,"BSTAR":0.0088041207,"MEAN_MOTION_DOT":0.00023534,"MEAN_MOTION_DDOT":0},{"OBJECT_NAME":"FENGYUN 1C DEB","OBJECT_ID":"1999-025DJR","EPOCH":"2026-04-04T11:44:49.168608","MEAN_MOTION":14.19806393,"ECCENTRICITY":0.00296274,"INCLINATION":98.5578,"RA_OF_ASC_NODE":105.5704,"ARG_OF_PERICENTER":96.5093,"MEAN_ANOMALY":263.9458,"EPHEMERIS_TYPE":0,"CLASSIFICATION_TYPE":"U","NORAD_CAT_ID":35089,"ELEMENT_SET_NO":999,"REV_AT_EPOCH":62475,"BSTAR":0.00072296161,"MEAN_MOTION_DOT":1.497e-5,"MEAN_MOTION_DDOT":0},{"OBJECT_NAME":"FENGYUN 1C DEB","OBJECT_ID":"1999-025DJS","EPOCH":"2026-04-03T00:06:14.593248","MEAN_MOTION":14.18321941,"ECCENTRICITY":0.00565341,"INCLINATION":99.1918,"RA_OF_ASC_NODE":114.6349,"ARG_OF_PERICENTER":62.2836,"MEAN_ANOMALY":298.4057,"EPHEMERIS_TYPE":0,"CLASSIFICATION_TYPE":"U","NORAD_CAT_ID":35090,"ELEMENT_SET_NO":999,"REV_AT_EPOCH":67827,"BSTAR":0.0019569138,"MEAN_MOTION_DOT":4.051e-5,"MEAN_MOTION_DDOT":0},{"OBJECT_NAME":"FENGYUN 1C DEB","OBJECT_ID":"1999-025DJT","EPOCH":"2026-04-02T18:21:11.450304","MEAN_MOTION":14.6522673,"ECCENTRICITY":0.00438608,"INCLINATION":98.5924,"RA_OF_ASC_NODE":206.733,"ARG_OF_PERICENTER":308.1103,"MEAN_ANOMALY":51.6148,"EPHEMERIS_TYPE":0,"CLASSIFICATION_TYPE":"U","NORAD_CAT_ID":35091,"ELEMENT_SET_NO":999,"REV_AT_EPOCH":91551,"BSTAR":0.0030484119,"MEAN_MOTION_DOT":0.00016633,"MEAN_MOTION_DDOT":0},{"OBJECT_NAME":"FENGYUN 1C DEB","OBJECT_ID":"1999-025DKE","EPOCH":"2026-04-01T18:27:16.560288","MEAN_MOTION":14.29206582,"ECCENTRICITY":0.00608235,"INCLINATION":98.4789,"RA_OF_ASC_NODE":104.0463,"ARG_OF_PERICENTER":127.0425,"MEAN_ANOMALY":233.6342,"EPHEMERIS_TYPE":0,"CLASSIFICATION_TYPE":"U","NORAD_CAT_ID":35102,"ELEMENT_SET_NO":999,"REV_AT_EPOCH":66484,"BSTAR":0.00049509183,"MEAN_MOTION_DOT":1.241e-5,"MEAN_MOTION_DDOT":0},{"OBJECT_NAME":"FENGYUN 1C DEB","OBJECT_ID":"1999-025DKG","EPOCH":"2026-04-02T18:57:53.145216","MEAN_MOTION":14.205495,"ECCENTRICITY":0.0030695,"INCLINATION":98.5967,"RA_OF_ASC_NODE":101.4077,"ARG_OF_PERICENTER":178.6186,"MEAN_ANOMALY":1.2752,"EPHEMERIS_TYPE":0,"CLASSIFICATION_TYPE":"U","NORAD_CAT_ID":35104,"ELEMENT_SET_NO":999,"REV_AT_EPOCH":91343,"BSTAR":0.0004095755,"MEAN_MOTION_DOT":8.42e-6,"MEAN_MOTION_DDOT":0},{"OBJECT_NAME":"FENGYUN 1C DEB","OBJECT_ID":"1999-025DKH","EPOCH":"2026-03-28T16:55:03.077472","MEAN_MOTION":14.45704865,"ECCENTRICITY":0.01124131,"INCLINATION":98.9549,"RA_OF_ASC_NODE":79.5084,"ARG_OF_PERICENTER":97.9922,"MEAN_ANOMALY":263.4041,"EPHEMERIS_TYPE":0,"CLASSIFICATION_TYPE":"U","NORAD_CAT_ID":35105,"ELEMENT_SET_NO":999,"REV_AT_EPOCH":96024,"BSTAR":0.00032191321,"MEAN_MOTION_DOT":1.179e-5,"MEAN_MOTION_DDOT":0},{"OBJECT_NAME":"FENGYUN 1C DEB","OBJECT_ID":"1999-025DKM","EPOCH":"2026-04-04T05:32:45.685248","MEAN_MOTION":14.21047612,"ECCENTRICITY":0.0153511,"INCLINATION":98.6266,"RA_OF_ASC_NODE":85.8363,"ARG_OF_PERICENTER":68.6128,"MEAN_ANOMALY":293.135,"EPHEMERIS_TYPE":0,"CLASSIFICATION_TYPE":"U","NORAD_CAT_ID":35109,"ELEMENT_SET_NO":999,"REV_AT_EPOCH":65757,"BSTAR":0.00041978936,"MEAN_MOTION_DOT":9.84e-6,"MEAN_MOTION_DDOT":0},{"OBJECT_NAME":"FENGYUN 1C DEB","OBJECT_ID":"1999-025DKP","EPOCH":"2026-04-05T04:31:28.343136","MEAN_MOTION":14.11167199,"ECCENTRICITY":0.00209307,"INCLINATION":99.4526,"RA_OF_ASC_NODE":184.8185,"ARG_OF_PERICENTER":266.1493,"MEAN_ANOMALY":93.7283,"EPHEMERIS_TYPE":0,"CLASSIFICATION_TYPE":"U","NORAD_CAT_ID":35111,"ELEMENT_SET_NO":999,"REV_AT_EPOCH":65744,"BSTAR":0.00053215223,"MEAN_MOTION_DOT":9.12e-6,"MEAN_MOTION_DDOT":0},{"OBJECT_NAME":"FENGYUN 1C DEB","OBJECT_ID":"1999-025DKU","EPOCH":"2026-04-04T20:19:04.483488","MEAN_MOTION":14.25660864,"ECCENTRICITY":0.00598435,"INCLINATION":98.647,"RA_OF_ASC_NODE":144.3323,"ARG_OF_PERICENTER":80.6435,"MEAN_ANOMALY":280.1504,"EPHEMERIS_TYPE":0,"CLASSIFICATION_TYPE":"U","NORAD_CAT_ID":35116,"ELEMENT_SET_NO":999,"REV_AT_EPOCH":61571,"BSTAR":0.0011325727,"MEAN_MOTION_DOT":2.693e-5,"MEAN_MOTION_DDOT":0},{"OBJECT_NAME":"FENGYUN 1C DEB","OBJECT_ID":"1999-025DKZ","EPOCH":"2026-04-04T09:39:46.953792","MEAN_MOTION":14.04835712,"ECCENTRICITY":0.01581945,"INCLINATION":98.2896,"RA_OF_ASC_NODE":313.1087,"ARG_OF_PERICENTER":135.9939,"MEAN_ANOMALY":225.3952,"EPHEMERIS_TYPE":0,"CLASSIFICATION_TYPE":"U","NORAD_CAT_ID":35121,"ELEMENT_SET_NO":999,"REV_AT_EPOCH":62673,"BSTAR":0.00033643257,"MEAN_MOTION_DOT":5.67e-6,"MEAN_MOTION_DDOT":0},{"OBJECT_NAME":"FENGYUN 1C DEB","OBJECT_ID":"1999-025DLA","EPOCH":"2026-04-05T12:11:40.919136","MEAN_MOTION":14.14271956,"ECCENTRICITY":0.00247597,"INCLINATION":98.6649,"RA_OF_ASC_NODE":115.5469,"ARG_OF_PERICENTER":191.8289,"MEAN_ANOMALY":168.2305,"EPHEMERIS_TYPE":0,"CLASSIFICATION_TYPE":"U","NORAD_CAT_ID":35122,"ELEMENT_SET_NO":999,"REV_AT_EPOCH":65475,"BSTAR":0.00034337281,"MEAN_MOTION_DOT":6.15e-6,"MEAN_MOTION_DDOT":0},{"OBJECT_NAME":"FENGYUN 1C DEB","OBJECT_ID":"1999-025DLB","EPOCH":"2026-04-02T06:38:32.914176","MEAN_MOTION":14.24502171,"ECCENTRICITY":0.00497822,"INCLINATION":99.1256,"RA_OF_ASC_NODE":284.2048,"ARG_OF_PERICENTER":119.5068,"MEAN_ANOMALY":241.1087,"EPHEMERIS_TYPE":0,"CLASSIFICATION_TYPE":"U","NORAD_CAT_ID":35123,"ELEMENT_SET_NO":999,"REV_AT_EPOCH":62647,"BSTAR":0.00050356773,"MEAN_MOTION_DOT":1.135e-5,"MEAN_MOTION_DDOT":0},{"OBJECT_NAME":"FENGYUN 1C DEB","OBJECT_ID":"1999-025DLD","EPOCH":"2026-03-23T18:17:46.815360","MEAN_MOTION":14.33897216,"ECCENTRICITY":0.00517777,"INCLINATION":98.2157,"RA_OF_ASC_NODE":93.71,"ARG_OF_PERICENTER":354.3211,"MEAN_ANOMALY":5.7381,"EPHEMERIS_TYPE":0,"CLASSIFICATION_TYPE":"U","NORAD_CAT_ID":35125,"ELEMENT_SET_NO":999,"REV_AT_EPOCH":32729,"BSTAR":0.0011349205,"MEAN_MOTION_DOT":3.17e-5,"MEAN_MOTION_DDOT":0}]
