FENGYUN 1C DEB          
1 33747U 99025DJL 26090.73517223  .00004644  00000+0  21860-2 0  9992
2 33747  99.0906 193.0359 0086639 266.8352  92.2907 14.18484168916777
FENGYUN 1C DEB          
1 33748U 99025DJM 26094.86101548  .00001913  00000+0  71240-3 0  9994
2 33748  98.5710 149.8624 0033891 264.8625  94.8691 14.32851351930134
FENGYUN 1C DEB          
1 35088U 99025DJQ 26088.09579822  .00023534  00000+0  88041-2 0  9994
2 35088  94.6192 217.4941 0259337 230.3708 127.4331 14.14807221603029
FENGYUN 1C DEB          
1 35089U 99025DJR 26094.48945797  .00001497  00000+0  72296-3 0  9993
2 35089  98.5578 105.5704 0029627  96.5093 263.9458 14.19806393624754
FENGYUN 1C DEB          
1 35090U 99025DJS 26093.00433557  .00004051  00000+0  19569-2 0  9990
2 35090  99.1918 114.6349 0056534  62.2836 298.4057 14.18321941678273
FENGYUN 1C DEB          
1 35091U 99025DJT 26092.76471586  .00016633  00000+0  30484-2 0  9995
2 35091  98.5924 206.7330 0043860 308.1103  51.6148 14.65226730915517
FENGYUN 1C DEB          
1 35102U 99025DKE 26091.76894167  .00001241  00000+0  49509-3 0  9999
2 35102  98.4789 104.0463 0060823 127.0425 233.6342 14.29206582664846
FENGYUN 1C DEB          
1 35104U 99025DKG 26092.79019844  .00000842  00000+0  40958-3 0  9991
2 35104  98.5967 101.4077 0030695 178.6186   1.2752 14.20549500913436
FENGYUN 1C DEB          
1 35105U 99025DKH 26087.70489673  .00001179  00000+0  32191-3 0  9992
2 35105  98.9549  79.5084 0112413  97.9922 263.4041 14.45704865960248
FENGYUN 1C DEB          
1 35109U 99025DKM 26094.23108432  .00000984  00000+0  41979-3 0  9990
2 35109  98.6266  85.8363 0153511  68.6128 293.1350 14.21047612657578
FENGYUN 1C DEB          
1 35111U 99025DKP 26095.18852249  .00000912  00000+0  53215-3 0  9997
2 35111  99.4526 184.8185 0020930 266.1493  93.7283 14.11167199657446
FENGYUN 1C DEB          
1 35116U 99025DKU 26094.84657967  .00002693  00000+0  11326-2 0  9998
2 35116  98.6470 144.3323 0059843  80.6435 280.1504 14.25660864615719
FENGYUN 1C DEB          
1 35121U 99025DKZ 26094.40262678  .00000567  00000+0  33643-3 0  9992
2 35121  98.2896 313.1087 0158194 135.9939 225.3952 14.04835712626733
FENGYUN 1C DEB          
1 35122U 99025DLA 26095.50811249  .00000615  00000+0  34337-3 0  9994
2 35122  98.6649 115.5469 0024759 191.8289 168.2305 14.14271956654755
FENGYUN 1C DEB          
1 35123U 99025DLB 26092.27676984  .00001135  00000+0  50357-3 0  9999
2 35123  99.1256 284.2048 0049782 119.5068 241.1087 14.24502171626471
FENGYUN 1C DEB          
1 35125U 99025DLD 26082.76234740  .00003170  00000+0  11349-2 0  9992
2 35125  98.2157  93.7100 0051777 354.3211   5.7381 14.33897216327297
